NORAD_CAT_ID,OBJECT_NAME,OBJECT_TYPE,EPOCH,MEAN_MOTION,ECCENTRICITY,INCLINATION,RA_OF_ASC_NODE,ARG_OF_PERICENTER,MEAN_ANOMALY,BSTAR,MEAN_MOTION_DOT,MEAN_MOTION_DDOT,TLE_LINE0,TLE_LINE1,TLE_LINE2,SEMIMAJOR_AXIS,PERIOD,APOGEE,PERIGEE,DECAYED
49436.0,STARLINK-3049,PAYLOAD,2023-07-14 14:39:04,15.08844771,0.0001176,53.2169,239.4864,88.0742,272.0384,6.421e-05,7.34e-06,0.0,0 STARLINK-3049,1 49436U 21104AE  23195.61047386  .00000734  00000-0  64210-4 0  9990,2 49436  53.2169 239.4864 0001176  88.0742 272.0384 15.08844771 93681,6917.866,95.437,540.544,538.917,0.0
49436.0,STARLINK-3049,PAYLOAD,2023-07-16 03:12:57,15.08832167,0.0001055,53.2162,232.6462,102.2404,257.8706,-7.1048e-05,-1.418e-05,0.0,0 STARLINK-3049,1 49436U 21104AE  23197.13400092 -.00001418  00000-0 -71048-4 0  9995,2 49436  53.2162 232.6462 0001055 102.2404 257.8706 15.08832167 93914,6917.904,95.438,540.499,539.039,0.0
49436.0,STARLINK-3049,PAYLOAD,2023-07-17 11:00:40,15.08837755,0.0001329,53.2153,226.7008,119.394,240.7184,0.00011946,1.614e-05,0.0,0 STARLINK-3049,1 49436U 21104AE  23198.45880296  .00001614  00000-0  11946-3 0  9995,2 49436  53.2153 226.7008 0001329 119.3940 240.7184 15.08837755 94114,6917.887,95.438,540.672,538.833,0.0
49436.0,STARLINK-3049,PAYLOAD,2023-07-18 10:51:27,15.08850041,9.94e-05,53.2144,222.2401,95.0349,265.0756,0.00031961,4.804e-05,0.0,0 STARLINK-3049,1 49436U 21104AE  23199.45239888  .00004804  00000-0  31961-3 0  9994,2 49436  53.2144 222.2401 0000994  95.0349 265.0756 15.08850041 94266,6917.85,95.437,540.402,539.027,0.0
49436.0,STARLINK-3049,PAYLOAD,2023-07-19 10:42:12,15.08893907,0.0001328,53.2142,217.7793,124.1588,235.953,0.0010366,0.00016272,0.0,0 STARLINK-3049,1 49436U 21104AE  23200.44597813  .00016272  00000-0  10366-2 0  9998,2 49436  53.2142 217.7793 0001328 124.1588 235.9530 15.08893907 94419,6917.716,95.434,540.499,538.662,0.0
49436.0,STARLINK-3049,PAYLOAD,2023-07-20 13:43:47,15.08842736,0.0001222,53.2161,212.7247,111.8744,248.2378,-3.1992e-05,-7.97e-06,0.0,0 STARLINK-3049,1 49436U 21104AE  23201.57207503 -.00000797  00000-0 -31992-4 0  9994,2 49436  53.2161 212.7247 0001222 111.8744 248.2378 15.08842736 94588,6917.872,95.437,540.582,538.892,0.0
49436.0,STARLINK-3049,PAYLOAD,2023-07-21 10:23:48,15.08842053,0.0001863,53.216,208.8581,138.405,221.7084,-0.00016476,-2.91e-05,0.0,0 STARLINK-3049,1 49436U 21104AE  23202.43320073 -.00002910  00000-0 -16476-3 0  9996,2 49436  53.2160 208.8581 0001863 138.4050 221.7084 15.08842053 94717,6917.874,95.437,541.028,538.45,0.0
49436.0,STARLINK-3049,PAYLOAD,2023-07-24 00:23:51,15.08835167,0.0001386,53.2163,197.2611,106.012,254.1025,8.5253e-05,1.069e-05,0.0,0 STARLINK-3049,1 49436U 21104AE  23205.01657038  .00001069  00000-0  85253-4 0  9999,2 49436  53.2163 197.2611 0001386 106.0120 254.1025 15.08835167 94032,6917.895,95.438,540.719,538.801,0.0
49436.0,STARLINK-3049,PAYLOAD,2023-07-25 11:22:20,15.08839881,0.0001368,53.2159,190.7185,104.9044,255.21,7.0859e-05,8.4e-06,0.0,0 STARLINK-3049,1 49436U 21104AE  23206.47385139  .00000840  00000-0  70859-4 0  9992,2 49436  53.2159 190.7185 0001368 104.9044 255.2100 15.08839881 94250,6917.881,95.438,540.692,538.799,0.0
49436.0,STARLINK-3049,PAYLOAD,2023-07-26 11:13:07,15.08845313,0.0001365,53.2185,186.2558,102.2719,257.8426,0.00011747,1.582e-05,0.0,0 STARLINK-3049,1 49436U 21104AE  23207.46744703  .00001582  00000-0  11747-3 0  9992,2 49436  53.2185 186.2558 0001365 102.2719 257.8426 15.08845313 94403,6917.864,95.437,540.673,538.785,0.0
49436.0,STARLINK-3049,PAYLOAD,2023-07-27 01:31:35,15.08843537,0.0001361,53.2164,183.5809,104.5624,255.5519,8.2304e-05,1.022e-05,0.0,0 STARLINK-3049,1 49436U 21104AE  23208.06360783  .00001022  00000-0  82304-4 0  9998,2 49436  53.2164 183.5809 0001361 104.5624 255.5519 15.08843537 95567,6917.87,95.437,540.676,538.793,0.0
49436.0,STARLINK-3049,PAYLOAD,2023-07-27 07:53:07,15.0885159,0.0001388,53.2163,182.3925,97.1939,262.9211,8.7956e-05,1.113e-05,0.0,0 STARLINK-3049,1 49436U 21104AE  23208.32856267  .00001113  00000-0  87956-4 0  9993,2 49436  53.2163 182.3925 0001388  97.1939 262.9211 15.08851590 94532,6917.845,95.437,540.67,538.75,0.0
49436.0,STARLINK-3049,PAYLOAD,2023-07-27 15:50:04,15.08836061,0.0001355,53.2142,180.9075,84.9851,275.1296,1.3286e-05,-7.6e-07,0.0,0 STARLINK-3049,1 49436U 21104AE  23208.65977415 -.00000076  00000-0  13286-4 0  9991,2 49436  53.2142 180.9075 0001355  84.9851 275.1296 15.08836061 95659,6917.892,95.438,540.695,538.82,0.0
49436.0,STARLINK-3049,PAYLOAD,2023-07-27 22:11:37,15.08833383,0.000131,53.2133,179.7204,75.4329,284.6808,1.2023e-05,-9.7e-07,0.0,0 STARLINK-3049,1 49436U 21104AE  23208.92473648 -.00000097  00000-0  12023-4 0  9991,2 49436  53.2133 179.7204 0001310  75.4329 284.6808 15.08833383 94629,6917.901,95.438,540.672,538.859,0.0
49436.0,STARLINK-3049,PAYLOAD,2023-07-28 07:43:56,15.08832134,0.0001311,53.2171,177.931,103.2236,256.8902,-6.8494e-05,-1.378e-05,0.0,0 STARLINK-3049,1 49436U 21104AE  23209.32218087 -.00001378  00000-0 -68494-4 0  9997,2 49436  53.2171 177.9310 0001311 103.2236 256.8902 15.08832134 95751,6917.904,95.438,540.676,538.862,0.0
49436.0,STARLINK-3049,PAYLOAD,2023-07-29 02:48:33,15.08844495,0.0001217,53.2177,174.3644,88.1759,271.9373,3.6516e-05,2.93e-06,0.0,0 STARLINK-3049,1 49436U 21104AE  23210.11705207  .00000293  00000-0  36516-4 0  9994,2 49436  53.2177 174.3644 0001217  88.1759 271.9373 15.08844495 95870,6917.867,95.437,540.574,538.89,0.0
49436.0,STARLINK-3049,PAYLOAD,2023-07-30 02:39:20,15.08837149,0.0001266,53.2166,169.9054,78.4453,281.6681,0.00021001,3.056e-05,0.0,0 STARLINK-3049,1 49436U 21104AE  23211.11065620  .00003056  00000-0  21001-3 0  9995,2 49436  53.2166 169.9054 0001266  78.4453 281.6681 15.08837149 96026,6917.889,95.438,540.63,538.878,0.0
49436.0,STARLINK-3049,PAYLOAD,2023-07-31 07:16:16,15.08846337,0.0001262,53.2166,164.5521,93.8772,266.2364,7.0648e-05,8.37e-06,0.0,0 STARLINK-3049,1 49436U 21104AE  23212.30297361  .00000837  00000-0  70648-4 0  9992,2 49436  53.2166 164.5521 0001262  93.8772 266.2364 15.08846337 96203,6917.861,95.437,540.599,538.853,0.0
49436.0,STARLINK-3049,PAYLOAD,2023-07-31 13:37:49,15.08840161,0.0001243,53.2167,163.3625,88.5246,271.5889,4.1653e-05,3.75e-06,0.0,0 STARLINK-3049,1 49436U 21104AE  23212.56793858  .00000375  00000-0  41653-4 0  9993,2 49436  53.2167 163.3625 0001243  88.5246 271.5889 15.08840161 96246,6917.88,95.438,540.605,538.885,0.0
49436.0,STARLINK-3049,PAYLOAD,2023-08-01 02:20:55,15.08833694,0.0001271,53.2165,160.9835,94.8891,265.2247,-5.3666e-06,-3.73e-06,0.0,0 STARLINK-3049,1 49436U 21104AE  23213.09786448 -.00000373  00000-0 -53666-5 0  9997,2 49436  53.2165 160.9835 0001271  94.8891 265.2247 15.08833694 96327,6917.9,95.438,540.644,538.885,0.0
49436.0,STARLINK-3049,PAYLOAD,2023-08-02 05:22:28,15.08842013,0.0001271,53.2168,155.9282,95.2349,264.8789,6.1089e-05,6.85e-06,0.0,0 STARLINK-3049,1 49436U 21104AE  23214.22393970  .00000685  00000-0  61089-4 0  9998,2 49436  53.2168 155.9282 0001271  95.2349 264.8789 15.08842013 96492,6917.874,95.437,540.618,538.86,0.0
49436.0,STARLINK-3049,PAYLOAD,2023-08-04 01:53:16,15.08841292,0.000135,53.2178,147.5987,101.0497,259.0647,1.0587e-05,-1.19e-06,0.0,0 STARLINK-3049,1 49436U 21104AE  23216.07866445 -.00000119  00000-0  10587-4 0  9995,2 49436  53.2178 147.5987 0001350 101.0497 259.0647 15.08841292 96778,6917.876,95.437,540.675,538.808,0.0
49436.0,STARLINK-3049,PAYLOAD,2023-08-05 01:44:02,15.08852228,0.0001319,53.217,143.1381,107.7622,252.3514,2.4675e-05,1.05e-06,0.0,0 STARLINK-3049,1 49436U 21104AE  23217.07225620  .00000105  00000-0  24675-4 0  9997,2 49436  53.2170 143.1381 0001319 107.7622 252.3514 15.08852228 96925,6917.843,95.437,540.62,538.796,0.0
49436.0,STARLINK-3049,PAYLOAD,2023-08-07 03:01:01,15.08829484,0.0001097,53.2174,133.9222,113.2554,246.8554,-0.00012726,-2.312e-05,0.0,0 STARLINK-3049,1 49436U 21104AE  23219.12571620 -.00002312  00000-0 -12726-3 0  9996,2 49436  53.2174 133.9222 0001097 113.2554 246.8554 15.08829484 97234,6917.913,95.438,540.536,539.019,0.0
49436.0,STARLINK-3049,PAYLOAD,2023-08-07 10:57:57,15.08836665,0.0001032,53.2177,132.4367,108.2513,251.8592,-0.00010009,-1.88e-05,0.0,0 STARLINK-3049,1 49436U 21104AE  23219.45691216 -.00001880  00000-0 -10009-3 0  9997,2 49436  53.2177 132.4367 0001032 108.2513 251.8592 15.08836665 97281,6917.891,95.438,540.47,539.042,0.0
49436.0,STARLINK-3049,PAYLOAD,2023-08-08 01:16:24,15.08851032,9.34e-05,53.2169,129.7602,107.6836,252.4259,4.4379e-05,4.19e-06,0.0,0 STARLINK-3049,1 49436U 21104AE  23220.05306072  .00000419  00000-0  44379-4 0  9991,2 49436  53.2169 129.7602 0000934 107.6836 252.4259 15.08851032 97376,6917.847,95.437,540.358,539.066,0.0
49436.0,STARLINK-3049,PAYLOAD,2023-08-09 02:42:35,15.08836862,0.0001,53.2178,125.0032,112.2753,247.8345,0.00020528,2.98e-05,0.0,0 STARLINK-3049,1 49436U 21104AE  23221.11290928  .00002980  00000-0  20528-3 0  9995,2 49436  53.2178 125.0032 0001000 112.2753 247.8345 15.08836862 97533,6917.89,95.438,540.447,539.063,0.0
49436.0,STARLINK-3049,PAYLOAD,2023-08-09 09:04:08,15.08822936,9.25e-05,53.2171,123.8132,111.6466,248.4625,8.0402e-05,9.92e-06,0.0,0 STARLINK-3049,1 49436U 21104AE  23221.37788148  .00000992  00000-0  80402-4 0  9998,2 49436  53.2171 123.8132 0000925 111.6466 248.4625 15.08822936 97571,6917.933,95.439,540.437,539.158,0.0
49436.0,STARLINK-3049,PAYLOAD,2023-08-10 02:33:22,15.08846424,0.0001014,53.2166,120.5422,97.1255,262.9853,5.3695e-06,-2.02e-06,0.0,0 STARLINK-3049,1 49436U 21104AE  23222.10650539 -.00000202  00000-0  53695-5 0  9992,2 49436  53.2166 120.5422 0001014  97.1255 262.9853 15.08846424 97689,6917.861,95.437,540.427,539.024,0.0
49436.0,STARLINK-3049,PAYLOAD,2023-08-10 16:51:50,15.08837683,9.77e-05,53.2161,117.866,95.5243,264.586,2.1308e-05,5.1e-07,0.0,0 STARLINK-3049,1 49436U 21104AE  23222.70267052  .00000051  00000-0  21308-4 0  9998,2 49436  53.2161 117.8660 0000977  95.5243 264.5860 15.08837683 97776,6917.887,95.438,540.428,539.077,0.0
